{"type": "FeatureCollection", "features": [ {"type": "Feature", "properties": {"norad_id": 49810, "name": "GSAT0224 (GALILEO 28)", "group": "gnss", "lat": -37.215228757296025, "lon": -164.07778865074485, "alt_km": 23216.655966843213, "timestamp": "2025-12-16T03:53:27.299136+00:00", "meta": {"OBJECT_NAME": "GSAT0224 (GALILEO 28)", "OBJECT_ID": "2021-116B", "EPOCH": "2025-12-14T00:56:09.559392", "MEAN_MOTION": 1.70476108, "ECCENTRICITY": 0.00038616, "INCLINATION": 57.22, "RA_OF_ASC_NODE": 346.6758, "ARG_OF_PERICENTER": 256.6425, "MEAN_ANOMALY": 106.3645, "EPHEMERIS_TYPE": 0, "CLASSIFICATION_TYPE": "U", "NORAD_CAT_ID": 49810, "ELEMENT_SET_NO": 999, "REV_AT_EPOCH": 2505, "BSTAR": 0, "MEAN_MOTION_DOT": -8.5e-07, "MEAN_MOTION_DDOT": 0}, "tle": {"line1": "1 49810U 21116B   25348.03899953 -.00000085  00000+0  00000+0 0  9993", "line2": "2 49810  57.2200 346.6758 0003861 256.6425 106.3645  1.70476108 25058"}}, "geometry": {"type": "Point", "coordinates": [-164.07778865074485, -37.215228757296025]}}, {"type": "Feature", "properties": {"norad_id": 52984, "name": "COSMOS 2557 (706K)", "group": "gnss", "lat": 43.50333966369001, "lon": -12.031154573712028, "alt_km": 19148.797591724866, "timestamp": "2025-12-16T03:53:27.299154+00:00", "meta": {"OBJECT_NAME": "COSMOS 2557 (706K)", "OBJECT_ID": "2022-075A", "EPOCH": "2025-12-15T03:48:31.628160", "MEAN_MOTION": 2.13101754, "ECCENTRICITY": 0.00137438, "INCLINATION": 64.4079, "RA_OF_ASC_NODE": 320.966, "ARG_OF_PERICENTER": 276.8027, "MEAN_ANOMALY": 83.0378, "EPHEMERIS_TYPE": 0, "CLASSIFICATION_TYPE": "U", "NORAD_CAT_ID": 52984, "ELEMENT_SET_NO": 999, "REV_AT_EPOCH": 2679, "BSTAR": 0, "MEAN_MOTION_DOT": -6.9e-07, "MEAN_MOTION_DDOT": 0}, "tle": {"line1": "1 52984U 22075A   25349.15869940 -.00000069  00000+0  00000+0 0  9993", "line2": "2 52984  64.4079 320.9660 0013743 276.8027  83.0378  2.13101754 26793"}}, "geometry": {"type": "Point", "coordinates": [-12.031154573712028, 43.50333966369001]}}, {"type": "Feature", "properties": {"norad_id": 54031, "name": "COSMOS 2559 (707K)", "group": "gnss", "lat": -7.686396414187493, "lon": 144.72051834436886, "alt_km": 19101.5747922127, "timestamp": "2025-12-16T03:53:27.299174+00:00", "meta": {"OBJECT_NAME": "COSMOS 2559 (707K)", "OBJECT_ID": "2022-130A", "EPOCH": "2025-12-14T00:56:40.379136", "MEAN_MOTION": 2.13101379, "ECCENTRICITY": 0.00117642, "INCLINATION": 64.3815, "RA_OF_ASC_NODE": 321.0953, "ARG_OF_PERICENTER": 192.3475, "MEAN_ANOMALY": 167.6228, "EPHEMERIS_TYPE": 0, "CLASSIFICATION_TYPE": "U", "NORAD_CAT_ID": 54031, "ELEMENT_SET_NO": 999, "REV_AT_EPOCH": 2474, "BSTAR": 0, "MEAN_MOTION_DOT": -6.6e-07, "MEAN_MOTION_DDOT": 0}, "tle": {"line1": "1 54031U 22130A   25348.03935624 -.00000066  00000+0  00000+0 0  9996", "line2": "2 54031  64.3815 321.0953 0011764 192.3475 167.6228  2.13101379 24741"}}, "geometry": {"type": "Point", "coordinates": [144.72051834436886, -7.686396414187493]}}, {"type": "Feature", "properties": {"norad_id": 54377, "name": "COSMOS 2564 (761)", "group": "gnss", "lat": -45.36811308581571, "lon": 170.2120162066404, "alt_km": 19140.4287829381, "timestamp": "2025-12-16T03:53:27.299194+00:00", "meta": {"OBJECT_NAME": "COSMOS 2564 (761)", "OBJECT_ID": "2022-161A", "EPOCH": "2025-12-14T19:43:47.966880", "MEAN_MOTION": 2.13102114, "ECCENTRICITY": 0.00085908, "INCLINATION": 64.7383, "RA_OF_ASC_NODE": 198.8297, "ARG_OF_PERICENTER": 204.5299, "MEAN_ANOMALY": 155.5071, "EPHEMERIS_TYPE": 0, "CLASSIFICATION_TYPE": "U", "NORAD_CAT_ID": 54377, "ELEMENT_SET_NO": 999, "REV_AT_EPOCH": 2370, "BSTAR": 0, "MEAN_MOTION_DOT": 9.9e-07, "MEAN_MOTION_DDOT": 0}, "tle": {"line1": "1 54377U 22161A   25348.82208295  .00000099  00000+0  00000+0 0  9992", "line2": "2 54377  64.7383 198.8297 0008590 204.5299 155.5071  2.13102114 23707"}}, "geometry": {"type": "Point", "coordinates": [170.2120162066404, -45.36811308581571]}}, {"type": "Feature", "properties": {"norad_id": 55268, "name": "GPS BIII-6  (PRN 28)", "group": "gnss", "lat": 35.93304371375708, "lon": -54.69839785066496, "alt_km": 20185.707667973773, "timestamp": "2025-12-16T03:53:27.299214+00:00", "meta": {"OBJECT_NAME": "GPS BIII-6  (PRN 28)", "OBJECT_ID": "2023-009A", "EPOCH": "2025-12-13T12:37:03.021024", "MEAN_MOTION": 2.00555696, "ECCENTRICITY": 0.00037118, "INCLINATION": 55.1051, "RA_OF_ASC_NODE": 155.8142, "ARG_OF_PERICENTER": 357.4368, "MEAN_ANOMALY": 33.2544, "EPHEMERIS_TYPE": 0, "CLASSIFICATION_TYPE": "U", "NORAD_CAT_ID": 55268, "ELEMENT_SET_NO": 999, "REV_AT_EPOCH": 2152, "BSTAR": 0, "MEAN_MOTION_DOT": 1e-06, "MEAN_MOTION_DDOT": 0}, "tle": {"line1": "1 55268U 23009A   25347.52572941  .00000100  00000+0  00000+0 0  9995", "line2": "2 55268  55.1051 155.8142 0003711 357.4368  33.2544  2.00555696 21528"}}, "geometry": {"type": "Point", "coordinates": [-54.69839785066496, 35.93304371375708]}}, {"type": "Feature", "properties": {"norad_id": 56564, "name": "BEIDOU-3 G4 (C62)", "group": "gnss", "lat": 0.00549287973936174, "lon": -56.50679969592817, "alt_km": 35793.9749541749, "timestamp": "2025-12-16T03:53:27.299232+00:00", "meta": {"OBJECT_NAME": "BEIDOU-3 G4 (C62)", "OBJECT_ID": "2023-066A", "EPOCH": "2025-12-15T07:27:38.575296", "MEAN_MOTION": 1.00271763, "ECCENTRICITY": 0.0002817, "INCLINATION": 0.8091, "RA_OF_ASC_NODE": 302.2639, "ARG_OF_PERICENTER": 229.3821, "MEAN_ANOMALY": 184.5453, "EPHEMERIS_TYPE": 0, "CLASSIFICATION_TYPE": "U", "NORAD_CAT_ID": 56564, "ELEMENT_SET_NO": 999, "REV_AT_EPOCH": 955, "BSTAR": 0, "MEAN_MOTION_DOT": -8.9e-07, "MEAN_MOTION_DDOT": 0}, "tle": {"line1": "1 56564U 23066A   25349.31086314 -.00000089  00000+0  00000+0 0  9998", "line2": "2 56564   0.8091 302.2639 0002817 229.3821 184.5453  1.00271763  9552"}}, "geometry": {"type": "Point", "coordinates": [-56.50679969592817, 0.00549287973936174]}}, {"type": "Feature", "properties": {"norad_id": 56759, "name": "NVS-01 (IRNSS-1J)", "group": "gnss", "lat": 0.9320264282050199, "lon": -87.10386511663808, "alt_km": 35747.4416385457, "timestamp": "2025-12-16T03:53:27.299251+00:00", "meta": {"OBJECT_NAME": "NVS-01 (IRNSS-1J)", "OBJECT_ID": "2023-076A", "EPOCH": "2025-12-15T07:09:21.525984", "MEAN_MOTION": 1.00276414, "ECCENTRICITY": 0.00088727, "INCLINATION": 2.6119, "RA_OF_ASC_NODE": 251.505, "ARG_OF_PERICENTER": 15.1057, "MEAN_ANOMALY": 54.4216, "EPHEMERIS_TYPE": 0, "CLASSIFICATION_TYPE": "U", "NORAD_CAT_ID": 56759, "ELEMENT_SET_NO": 999, "REV_AT_EPOCH": 927, "BSTAR": 0, "MEAN_MOTION_DOT": -3.12e-06, "MEAN_MOTION_DDOT": 0}, "tle": {"line1": "1 56759U 23076A   25349.29816581 -.00000312  00000+0  00000+0 0  9998", "line2": "2 56759   2.6119 251.5050 0008872  15.1057  54.4216  1.00276414  9270"}}, "geometry": {"type": "Point", "coordinates": [-87.10386511663808, 0.9320264282050199]}}, {"type": "Feature", "properties": {"norad_id": 57517, "name": "COSMOS 2569 (703K)", "group": "gnss", "lat": -53.48527591817026, "lon": 40.2241938575616, "alt_km": 19109.31390591887, "timestamp": "2025-12-16T03:53:27.299269+00:00", "meta": {"OBJECT_NAME": "COSMOS 2569 (703K)", "OBJECT_ID": "2023-114A", "EPOCH": "2025-12-13T21:31:33.711744", "MEAN_MOTION": 2.13104015, "ECCENTRICITY": 0.00105602, "INCLINATION": 65.1948, "RA_OF_ASC_NODE": 78.8743, "ARG_OF_PERICENTER": 286.9875, "MEAN_ANOMALY": 72.9108, "EPHEMERIS_TYPE": 0, "CLASSIFICATION_TYPE": "U", "NORAD_CAT_ID": 57517, "ELEMENT_SET_NO": 999, "REV_AT_EPOCH": 1831, "BSTAR": 0, "MEAN_MOTION_DOT": -5.2e-07, "MEAN_MOTION_DDOT": 0}, "tle": {"line1": "1 57517U 23114A   25347.89691796 -.00000052  00000+0  00000+0 0  9998", "line2": "2 57517  65.1948  78.8743 0010560 286.9875  72.9108  2.13104015 18311"}}, "geometry": {"type": "Point", "coordinates": [40.2241938575616, -53.48527591817026]}}, {"type": "Feature", "properties": {"norad_id": 58654, "name": "BEIDOU-3 M28 (C50)", "group": "gnss", "lat": -18.978953840098985, "lon": 54.879217020982935, "alt_km": 21528.008463730926, "timestamp": "2025-12-16T03:53:27.299286+00:00", "meta": {"OBJECT_NAME": "BEIDOU-3 M28 (C50)", "OBJECT_ID": "2023-207A", "EPOCH": "2025-12-14T14:03:38.795616", "MEAN_MOTION": 1.86229811, "ECCENTRICITY": 0.00024957, "INCLINATION": 55.586, "RA_OF_ASC_NODE": 68.5388, "ARG_OF_PERICENTER": 270.6394, "MEAN_ANOMALY": 89.3503, "EPHEMERIS_TYPE": 0, "CLASSIFICATION_TYPE": "U", "NORAD_CAT_ID": 58654, "ELEMENT_SET_NO": 999, "REV_AT_EPOCH": 1340, "BSTAR": 0, "MEAN_MOTION_DOT": -8.4e-07, "MEAN_MOTION_DDOT": 0}, "tle": {"line1": "1 58654U 23207A   25348.58586569 -.00000084  00000+0  00000+0 0  9997", "line2": "2 58654  55.5860  68.5388 0002495 270.6394  89.3503  1.86229811 13402"}}, "geometry": {"type": "Point", "coordinates": [54.879217020982935, -18.978953840098985]}}, {"type": "Feature", "properties": {"norad_id": 58655, "name": "BEIDOU-3 M26 (C48)", "group": "gnss", "lat": 49.70405788968359, "lon": -165.33818486884593, "alt_km": 21530.942467986, "timestamp": "2025-12-16T03:53:27.299306+00:00", "meta": {"OBJECT_NAME": "BEIDOU-3 M26 (C48)", "OBJECT_ID": "2023-207B", "EPOCH": "2025-12-14T09:12:13.791744", "MEAN_MOTION": 1.86231292, "ECCENTRICITY": 0.00038911, "INCLINATION": 55.5879, "RA_OF_ASC_NODE": 68.532, "ARG_OF_PERICENTER": 256.6064, "MEAN_ANOMALY": 103.3685, "EPHEMERIS_TYPE": 0, "CLASSIFICATION_TYPE": "U", "NORAD_CAT_ID": 58655, "ELEMENT_SET_NO": 999, "REV_AT_EPOCH": 1338, "BSTAR": 0, "MEAN_MOTION_DOT": -8.4e-07, "MEAN_MOTION_DDOT": 0}, "tle": {"line1": "1 58655U 23207B   25348.38349296 -.00000084  00000+0  00000+0 0  9990", "line2": "2 58655  55.5879  68.5320 0003891 256.6064 103.3685  1.86231292 13389"}}, "geometry": {"type": "Point", "coordinates": [-165.33818486884593, 49.70405788968359]}}]}